OBJECT_NAME,OBJECT_ID,EPOCH,MEAN_MOTION,ECCENTRICITY,INCLINATION,RA_OF_ASC_NODE,ARG_OF_PERICENTER,MEAN_ANOMALY,EPHEMERIS_TYPE,CLASSIFICATION_TYPE,NORAD_CAT_ID,ELEMENT_SET_NO,REV_AT_EPOCH,BSTAR,MEAN_MOTION_DOT,MEAN_MOTION_DDOT
STARLINK-6312,2023-065AK,2026-07-13T03:54:41.470272,15.27555581,.00007433,43.0012,238.2236,230.2159,129.8628,0,U,56536,999,17562,-.89347896E-4,-.2718E-4,0
STARLINK-6311,2023-065AL,2026-07-13T03:39:51.071616,15.27574627,.00010968,42.9988,238.1426,229.5379,130.5377,0,U,56537,999,17562,-.365188E-6,-.272E-5,0
STARLINK-6314,2023-065AM,2026-07-13T00:31:20.935776,15.27573826,.00007842,43.0001,210.2889,223.7571,136.3219,0,U,56538,999,17593,-.14574498E-4,-.663E-5,0
STARLINK-6135,2023-065AN,2026-07-13T04:05:45.755808,15.27588038,.00012503,43.0037,238.2808,296.0447,64.0276,0,U,56539,999,17562,.27419786E-4,.493E-5,0
STARLINK-6136,2023-065AP,2026-07-13T02:37:08.816448,15.27578757,.0001389,43.0024,238.6759,274.6057,85.4636,0,U,56540,999,17561,.5615209E-5,-.108E-5,0
STARLINK-6249,2023-065AQ,2026-07-13T04:41:37.444128,15.27576553,.00014058,43.0004,235.0527,266.2519,93.8172,0,U,56541,999,17566,.40603235E-4,.855E-5,0
STARLINK-6266,2023-065AR,2026-07-13T04:00:12.388320,15.27581352,.00011003,43.0017,238.2475,288.4508,71.6224,0,U,56542,999,17562,.4446603E-5,-.14E-5,0
STARLINK-6226,2023-065AT,2026-07-13T03:33:09.842976,15.27580433,.00010408,42.9998,234.7057,240.7336,119.3411,0,U,56544,999,17566,.1694815E-4,.204E-5,0
STARLINK-6086,2023-065AU,2026-07-13T02:50:49.357248,15.27585943,.0002433,43.0025,235.3401,280.9443,79.1135,0,U,56545,999,17565,.53059285E-4,.1198E-4,0
STARLINK-6187,2023-065AV,2026-07-13T06:10:13.634400,15.27586244,.00015261,42.9982,234.6570,268.5819,91.4858,0,U,56546,999,17567,.26199499E-3,.6956E-4,0
STARLINK-6291,2023-065AW,2026-07-13T04:04:38.738784,15.27563298,.00012557,43.0020,234.8573,227.1121,132.9625,0,U,56547,999,17566,-.11299579E-4,-.573E-5,0
STARLINK-6244,2023-065AX,2026-07-13T04:43:28.508736,15.27581953,.00014462,43.0002,235.0590,275.1560,84.9127,0,U,56548,999,17566,-.6096722E-5,-.43E-5,0
STARLINK-6263,2023-065AY,2026-07-12T04:37:49.279008,15.27571787,.00019713,43.0021,240.4229,277.8373,82.2255,0,U,56549,999,17551,.9122814E-5,-.11E-6,0
STARLINK-6255,2023-065AZ,2026-07-13T04:45:19.171584,15.27577388,.00013817,43.0000,235.0696,261.9041,98.1654,0,U,56550,999,17566,.36092443E-4,.731E-5,0
STARLINK-6199,2023-065BA,2026-07-13T04:21:15.868224,15.27584135,.0001855,43.0036,234.9454,279.0505,81.0137,0,U,56551,999,17566,.12180201E-3,.3091E-4,0
STARLINK-5802,2023-065BB,2026-07-13T04:32:22.099488,15.27576574,.00016883,43.0023,234.9983,270.6988,89.3670,0,U,56552,999,17566,.31527182E-4,.605E-5,0
STARLINK-6074,2023-065BC,2026-07-13T03:53:30.678432,15.27575994,.00011123,43.0037,234.7967,269.3525,90.7199,0,U,56553,999,17566,.7647496E-5,-.52E-6,0
STARLINK-6295,2023-065BD,2026-07-13T03:03:44.126784,15.27589621,.00013361,43.0004,235.3989,262.0332,98.0368,0,U,56554,999,17565,.46075116E-4,.1006E-4,0
STARLINK-6252,2023-065BE,2026-07-13T03:38:42.861408,15.27571759,.00016612,43.0009,234.7250,268.7602,91.3060,0,U,56555,999,17566,.20163459E-4,.293E-5,0
STARLINK-5302,2023-065BF,2026-07-13T03:59:03.919776,15.27580408,.00014625,43.0032,234.8277,276.0199,84.0486,0,U,56556,999,17566,.4643857E-5,-.134E-5,0
STARLINK-6265,2023-065BG,2026-07-13T04:15:42.952608,15.27576710,.00016952,43.0036,234.9129,272.4844,87.5814,0,U,56557,999,17566,.24135146E-4,.402E-5,0
STARLINK-6286,2023-065BH,2026-07-13T04:16:51.309696,15.27575352,.00018393,43.0036,238.3209,273.5910,86.4731,0,U,56558,999,17562,.35535736E-4,.715E-5,0
BEIDOU-3 G4,2023-066A,2026-07-13T07:17:07.738656,1.00273065,.00048706,0.4622,338.3610,187.9729,14.1847,0,U,56564,999,1165,0,-.283E-5,0
STARLINK-30122,2023-067A,2026-07-13T06:31:47.434656,15.27557820,.00017673,42.9996,288.8366,280.5259,79.5394,0,U,56688,999,17489,-.70188776E-4,-.2192E-4,0
STARLINK-30129,2023-067B,2026-07-13T07:39:17.629056,15.27580357,.00011171,43.0031,291.7510,270.2474,89.8249,0,U,56689,999,17479,.45169096E-4,.981E-5,0
STARLINK-30124,2023-067C,2026-07-13T07:48:34.805376,15.27564085,.00019386,43.0055,291.8088,273.3772,86.6858,0,U,56690,999,17479,.54016615E-4,.1224E-4,0
STARLINK-30036,2023-067E,2026-07-13T07:35:36.124512,15.27578943,.00012896,42.9987,291.7518,186.4591,173.6244,0,U,56692,999,17366,.15941061E-4,.177E-5,0
STARLINK-30067,2023-067F,2026-07-13T07:44:51.406080,15.27578445,.00017798,43.0004,291.8018,274.8024,85.2624,0,U,56693,999,17479,.29655114E-4,.554E-5,0
STARLINK-30126,2023-067G,2026-07-13T07:22:13.302624,15.27578438,.00017146,43.0004,284.8758,261.3192,98.7466,0,U,56694,999,17487,.30284104E-4,.571E-5,0
STARLINK-30121,2023-067H,2026-07-13T07:50:24.072000,15.27579255,.0001279,43.0035,291.8136,267.6647,92.4059,0,U,56695,999,17479,.44696909E-4,.968E-5,0
