STARLINK-6312           
1 56536U 23065AK  26194.16297998 -.00002718  00000+0 -89348-4 0  9999
2 56536  43.0012 238.2236 0000743 230.2159 129.8628 15.27555581175620
STARLINK-6311           
1 56537U 23065AL  26194.15267444 -.00000272  00000+0 -36519-6 0  9999
2 56537  42.9988 238.1426 0001096 229.5379 130.5377 15.27574627175620
STARLINK-6314           
1 56538U 23065AM  26194.02177009 -.00000663  00000+0 -14574-4 0  9992
2 56538  43.0001 210.2889 0000784 223.7571 136.3219 15.27573826175939
STARLINK-6135           
1 56539U 23065AN  26194.17066847  .00000493  00000+0  27420-4 0  9999
2 56539  43.0037 238.2808 0001250 296.0447  64.0276 15.27588038175621
STARLINK-6136           
1 56540U 23065AP  26194.10912982 -.00000108  00000+0  56152-5 0  9993
2 56540  43.0024 238.6759 0001389 274.6057  85.4636 15.27578757175613
STARLINK-6249           
1 56541U 23065AQ  26194.19557227  .00000855  00000+0  40603-4 0  9991
2 56541  43.0004 235.0527 0001405 266.2519  93.8172 15.27576553175660
STARLINK-6266           
1 56542U 23065AR  26194.16681005 -.00000140  00000+0  44466-5 0  9991
2 56542  43.0017 238.2475 0001100 288.4508  71.6224 15.27581352175629
STARLINK-6226           
1 56544U 23065AT  26194.14803059  .00000204  00000+0  16948-4 0  9999
2 56544  42.9998 234.7057 0001040 240.7336 119.3411 15.27580433175668
STARLINK-6086           
1 56545U 23065AU  26194.11862682  .00001198  00000+0  53059-4 0  9991
2 56545  43.0025 235.3401 0002433 280.9443  79.1135 15.27585943175650
STARLINK-6187           
1 56546U 23065AV  26194.25710225  .00006956  00000+0  26199-3 0  9993
2 56546  42.9982 234.6570 0001526 268.5819  91.4858 15.27586244175677
STARLINK-6291           
1 56547U 23065AW  26194.16989281 -.00000573  00000+0 -11300-4 0  9994
2 56547  43.0020 234.8573 0001255 227.1121 132.9625 15.27563298175660
STARLINK-6244           
1 56548U 23065AX  26194.19685774 -.00000430  00000+0 -60967-5 0  9994
2 56548  43.0002 235.0590 0001446 275.1560  84.9127 15.27581953175666
STARLINK-6263           
1 56549U 23065AY  26193.19293147 -.00000011  00000+0  91228-5 0  9991
2 56549  43.0021 240.4229 0001971 277.8373  82.2255 15.27571787175512
STARLINK-6255           
1 56550U 23065AZ  26194.19813856  .00000731  00000+0  36092-4 0  9994
2 56550  43.0000 235.0696 0001381 261.9041  98.1654 15.27577388175668
STARLINK-6199           
1 56551U 23065BA  26194.18143366  .00003091  00000+0  12180-3 0  9999
2 56551  43.0036 234.9454 0001855 279.0505  81.0137 15.27584135175664
STARLINK-5802           
1 56552U 23065BB  26194.18914467  .00000605  00000+0  31527-4 0  9993
2 56552  43.0023 234.9983 0001688 270.6988  89.3670 15.27576574175665
STARLINK-6074           
1 56553U 23065BC  26194.16216063 -.00000052  00000+0  76475-5 0  9998
2 56553  43.0037 234.7967 0001112 269.3525  90.7199 15.27575994175662
STARLINK-6295           
1 56554U 23065BD  26194.12759406  .00001006  00000+0  46075-4 0  9999
2 56554  43.0004 235.3989 0001336 262.0332  98.0368 15.27589621175652
STARLINK-6252           
1 56555U 23065BE  26194.15188497  .00000293  00000+0  20163-4 0  9996
2 56555  43.0009 234.7250 0001661 268.7602  91.3060 15.27571759175665
STARLINK-5302           
1 56556U 23065BF  26194.16601759 -.00000134  00000+0  46439-5 0  9999
2 56556  43.0032 234.8277 0001462 276.0199  84.0486 15.27580408175666
STARLINK-6265           
1 56557U 23065BG  26194.17758047  .00000402  00000+0  24135-4 0  9999
2 56557  43.0036 234.9129 0001695 272.4844  87.5814 15.27576710175667
STARLINK-6286           
1 56558U 23065BH  26194.17837164  .00000715  00000+0  35536-4 0  9992
2 56558  43.0036 238.3209 0001839 273.5910  86.4731 15.27575352175624
BEIDOU-3 G4             
1 56564U 23066A   26194.30356179 -.00000283  00000+0  00000+0 0  9991
2 56564   0.4622 338.3610 0004870 187.9729  14.1847  1.00273065 11650
STARLINK-30122          
1 56688U 23067A   26194.27207679 -.00002192  00000+0 -70189-4 0  9997
2 56688  42.9996 288.8366 0001767 280.5259  79.5394 15.27557820174895
STARLINK-30129          
1 56689U 23067B   26194.31895404  .00000981  00000+0  45169-4 0  9994
2 56689  43.0031 291.7510 0001117 270.2474  89.8249 15.27580357174799
STARLINK-30124          
1 56690U 23067C   26194.32540284  .00001224  00000+0  54017-4 0  9993
2 56690  43.0055 291.8088 0001938 273.3772  86.6858 15.27564085174795
STARLINK-30036          
1 56692U 23067E   26194.31639033  .00000177  00000+0  15941-4 0  9994
2 56692  42.9987 291.7518 0001289 186.4591 173.6244 15.27578943173667
STARLINK-30067          
1 56693U 23067F   26194.32281720  .00000554  00000+0  29655-4 0  9998
2 56693  43.0004 291.8018 0001779 274.8024  85.2624 15.27578445174795
STARLINK-30126          
1 56694U 23067G   26194.30709841  .00000571  00000+0  30284-4 0  9995
2 56694  43.0004 284.8758 0001714 261.3192  98.7466 15.27578438174879
STARLINK-30121          
1 56695U 23067H   26194.32666750  .00000968  00000+0  44697-4 0  9992
2 56695  43.0035 291.8136 0001279 267.6647  92.4059 15.27579255174790
